XRISM                   
1 57800U 23137A   24019.92390635  .00004562  00000+0  35818-3 0  9993
2 57800  31.0020 241.2939 0009699 171.0354 189.0455 14.99289714 20178
